{
  "type": "FeatureCollection",
  "features": [
    {
      "type": "Feature",
      "properties": {
        "norad_id": 38833,
        "name": "GPS BIIF-3  (PRN 24)",
        "group": "gps-ops",
        "lat": 48.74031968588283,
        "lon": -151.34302180620716,
        "alt_km": 19711.278630439065,
        "timestamp": "2025-12-11T22:43:47.527289+00:00",
        "meta_object_name": "GPS BIIF-3  (PRN 24)",
        "meta_object_id": "2012-053A",
        "meta_epoch": "2025-12-09T20:38:00.572640",
        "meta_mean_motion": 2.00564945,
        "meta_eccentricity": 0.0175755,
        "meta_inclination": 53.5569,
        "meta_ra_of_asc_node": 151.3565,
        "meta_arg_of_pericenter": 63.953,
        "meta_mean_anomaly": 297.8432,
        "meta_ephemeris_type": 0,
        "meta_classification_type": "U",
        "meta_norad_cat_id": 38833,
        "meta_element_set_no": 999,
        "meta_rev_at_epoch": 9564,
        "meta_bstar": 0,
        "meta_mean_motion_dot": 6.8e-07,
        "meta_mean_motion_ddot": 0,
        "tle_line1": "1 38833U 12053A   25343.85972885  .00000068  00000+0  00000+0 0  9997",
        "tle_line2": "2 38833  53.5569 151.3565 0175755  63.9530 297.8432  2.00564945 95646"
      },
      "geometry": {
        "type": "Point",
        "coordinates": [
          -151.34302180620716,
          48.74031968588283
        ]
      }
    },
    {
      "type": "Feature",
      "properties": {
        "norad_id": 39166,
        "name": "GPS BIIF-4  (PRN 27)",
        "group": "gps-ops",
        "lat": 9.75929798952716,
        "lon": 89.58463558589511,
        "alt_km": 20356.646625563615,
        "timestamp": "2025-12-11T22:43:47.527303+00:00",
        "meta_object_name": "GPS BIIF-4  (PRN 27)",
        "meta_object_id": "2013-023A",
        "meta_epoch": "2025-12-11T05:15:59.310144",
        "meta_mean_motion": 2.0056514,
        "meta_eccentricity": 0.01377988,
        "meta_inclination": 54.6533,
        "meta_ra_of_asc_node": 276.63,
        "meta_arg_of_pericenter": 48.5969,
        "meta_mean_anomaly": 312.5932,
        "meta_ephemeris_type": 0,
        "meta_classification_type": "U",
        "meta_norad_cat_id": 39166,
        "meta_element_set_no": 999,
        "meta_rev_at_epoch": 9211,
        "meta_bstar": 0,
        "meta_mean_motion_dot": -6.7e-07,
        "meta_mean_motion_ddot": 0,
        "tle_line1": "1 39166U 13023A   25345.21943646 -.00000067  00000+0  00000+0 0  9990",
        "tle_line2": "2 39166  54.6533 276.6300 0137798  48.5969 312.5932  2.00565140 92114"
      },
      "geometry": {
        "type": "Point",
        "coordinates": [
          89.58463558589511,
          9.75929798952716
        ]
      }
    },
    {
      "type": "Feature",
      "properties": {
        "norad_id": 39533,
        "name": "GPS BIIF-5  (PRN 30)",
        "group": "gps-ops",
        "lat": 9.3738402967342,
        "lon": -30.0383043049346,
        "alt_km": 20068.394501895527,
        "timestamp": "2025-12-11T22:43:47.527322+00:00",
        "meta_object_name": "GPS BIIF-5  (PRN 30)",
        "meta_object_id": "2014-008A",
        "meta_epoch": "2025-12-10T17:09:32.568192",
        "meta_mean_motion": 2.00574305,
        "meta_eccentricity": 0.0079159,
        "meta_inclination": 53.631,
        "meta_ra_of_asc_node": 157.0072,
        "meta_arg_of_pericenter": 226.4701,
        "meta_mean_anomaly": 132.8778,
        "meta_ephemeris_type": 0,
        "meta_classification_type": "U",
        "meta_norad_cat_id": 39533,
        "meta_element_set_no": 999,
        "meta_rev_at_epoch": 8590,
        "meta_bstar": 0,
        "meta_mean_motion_dot": 7.7e-07,
        "meta_mean_motion_ddot": 0,
        "tle_line1": "1 39533U 14008A   25344.71496028  .00000077  00000+0  00000+0 0  9993",
        "tle_line2": "2 39533  53.6310 157.0072 0079159 226.4701 132.8778  2.00574305 85902"
      },
      "geometry": {
        "type": "Point",
        "coordinates": [
          -30.0383043049346,
          9.3738402967342
        ]
      }
    },
    {
      "type": "Feature",
      "properties": {
        "norad_id": 39741,
        "name": "GPS BIIF-6  (PRN 06)",
        "group": "gps-ops",
        "lat": -28.63101554602907,
        "lon": -42.32143539411058,
        "alt_km": 20082.80928924517,
        "timestamp": "2025-12-11T22:43:47.527333+00:00",
        "meta_object_name": "GPS BIIF-6  (PRN 06)",
        "meta_object_id": "2014-026A",
        "meta_epoch": "2025-12-10T23:57:15.294816",
        "meta_mean_motion": 2.00561447,
        "meta_eccentricity": 0.00391459,
        "meta_inclination": 56.5843,
        "meta_ra_of_asc_node": 338.8441,
        "meta_arg_of_pericenter": 318.5813,
        "meta_mean_anomaly": 41.134,
        "meta_ephemeris_type": 0,
        "meta_classification_type": "U",
        "meta_norad_cat_id": 39741,
        "meta_element_set_no": 999,
        "meta_rev_at_epoch": 8476,
        "meta_bstar": 0,
        "meta_mean_motion_dot": -8.5e-07,
        "meta_mean_motion_ddot": 0,
        "tle_line1": "1 39741U 14026A   25344.99809369 -.00000085  00000+0  00000+0 0  9990",
        "tle_line2": "2 39741  56.5843 338.8441 0039145 318.5813  41.1340  2.00561447 84766"
      },
      "geometry": {
        "type": "Point",
        "coordinates": [
          -42.32143539411058,
          -28.63101554602907
        ]
      }
    },
    {
      "type": "Feature",
      "properties": {
        "norad_id": 40105,
        "name": "GPS BIIF-7  (PRN 09)",
        "group": "gps-ops",
        "lat": -54.54693923099424,
        "lon": -7.011677811966566,
        "alt_km": 20256.259138200392,
        "timestamp": "2025-12-11T22:43:47.527345+00:00",
        "meta_object_name": "GPS BIIF-7  (PRN 09)",
        "meta_object_id": "2014-045A",
        "meta_epoch": "2025-12-10T14:05:32.873856",
        "meta_mean_motion": 2.00572371,
        "meta_eccentricity": 0.00327329,
        "meta_inclination": 55.2279,
        "meta_ra_of_asc_node": 95.9848,
        "meta_arg_of_pericenter": 119.8162,
        "meta_mean_anomaly": 240.4986,
        "meta_ephemeris_type": 0,
        "meta_classification_type": "U",
        "meta_norad_cat_id": 40105,
        "meta_element_set_no": 999,
        "meta_rev_at_epoch": 8229,
        "meta_bstar": 0,
        "meta_mean_motion_dot": 0,
        "meta_mean_motion_ddot": 0,
        "tle_line1": "1 40105U 14045A   25344.58718604  .00000000  00000+0  00000+0 0  9999",
        "tle_line2": "2 40105  55.2279  95.9848 0032732 119.8162 240.4986  2.00572371 82291"
      },
      "geometry": {
        "type": "Point",
        "coordinates": [
          -7.011677811966566,
          -54.54693923099424
        ]
      }
    },
    {
      "type": "Feature",
      "properties": {
        "norad_id": 40294,
        "name": "GPS BIIF-8  (PRN 03)",
        "group": "gps-ops",
        "lat": -8.23661267537885,
        "lon": 32.76901956152255,
        "alt_km": 20151.769230484486,
        "timestamp": "2025-12-11T22:43:47.527357+00:00",
        "meta_object_name": "GPS BIIF-8  (PRN 03)",
        "meta_object_id": "2014-068A",
        "meta_epoch": "2025-12-10T11:09:30.250944",
        "meta_mean_motion": 2.00564629,
        "meta_eccentricity": 0.0060788,
        "meta_inclination": 56.8561,
        "meta_ra_of_asc_node": 38.234,
        "meta_arg_of_pericenter": 69.2281,
        "meta_mean_anomaly": 291.4749,
        "meta_ephemeris_type": 0,
        "meta_classification_type": "U",
        "meta_norad_cat_id": 40294,
        "meta_element_set_no": 999,
        "meta_rev_at_epoch": 8142,
        "meta_bstar": 0,
        "meta_mean_motion_dot": -8.9e-07,
        "meta_mean_motion_ddot": 0,
        "tle_line1": "1 40294U 14068A   25344.46493346 -.00000089  00000+0  00000+0 0  9991",
        "tle_line2": "2 40294  56.8561  38.2340 0060788  69.2281 291.4749  2.00564629 81424"
      },
      "geometry": {
        "type": "Point",
        "coordinates": [
          32.76901956152255,
          -8.23661267537885
        ]
      }
    },
    {
      "type": "Feature",
      "properties": {
        "norad_id": 40534,
        "name": "GPS BIIF-9  (PRN 26)",
        "group": "gps-ops",
        "lat": -51.08680067724825,
        "lon": 99.89335656662497,
        "alt_km": 20411.29997527312,
        "timestamp": "2025-12-11T22:43:47.527368+00:00",
        "meta_object_name": "GPS BIIF-9  (PRN 26)",
        "meta_object_id": "2015-013A",
        "meta_epoch": "2025-12-11T14:12:34.875648",
        "meta_mean_motion": 2.00562655,
        "meta_eccentricity": 0.01070076,
        "meta_inclination": 53.1979,
        "meta_ra_of_asc_node": 211.9377,
        "meta_arg_of_pericenter": 38.4526,
        "meta_mean_anomaly": 322.3807,
        "meta_ephemeris_type": 0,
        "meta_classification_type": "U",
        "meta_norad_cat_id": 40534,
        "meta_element_set_no": 999,
        "meta_rev_at_epoch": 7806,
        "meta_bstar": 0,
        "meta_mean_motion_dot": 2.2e-07,
        "meta_mean_motion_ddot": 0,
        "tle_line1": "1 40534U 15013A   25345.59207032  .00000022  00000+0  00000+0 0  9995",
        "tle_line2": "2 40534  53.1979 211.9377 0107007  38.4526 322.3807  2.00562655 78062"
      },
      "geometry": {
        "type": "Point",
        "coordinates": [
          99.89335656662497,
          -51.08680067724825
        ]
      }
    }
  ]
}